     3.00           N                   E                   RINEX VERSION / TYPE
BRD_USR             ESA                 20190104 052125  UTCPGM / RUN BY / DATE
 GAL   3.7750E+01 -1.9531E-02  1.4648E-03  0.0000E+00       IONOSPHERIC CORR
GAUT  2.7939677238E-09-1.776356839E-15 432000 2034 GSTB   0 TIME SYSTEM CORR
GPGA -3.0559021980E-09-1.154631946E-14 432000 2034 GSTB   0 TIME SYSTEM CORR
                                                            END OF HEADER
E03 2019 01 04 03 30 00-1.182532287203E-04-4.291678123991E-12 0.000000000000E+00
     1.010000000000E+02 2.562500000000E+00 3.669438561131E-09 6.671219447410E-01
     1.899898052216E-07 2.859667874873E-04 4.131346940994E-06 5.440601873398E+03
     4.446000000000E+05-6.891787052155E-08 1.365930364460E+00-2.607703208923E-08
     9.521481609070E-01 2.491562500000E+02 6.423948007448E-01-5.701308910972E-09
     4.893060958486E-11 2.580000000000E+02 2.034000000000E+03 0.000000000000E+00
     3.120000000000E+00 0.000000000000E+00-1.862645149231E-09 0.000000000000E+00
     4.453000000000E+05 0.000000000000E+00 0.000000000000E+00 0.000000000000E+00
E07 2019 01 04 03 30 00-1.060499926098E-04-7.048583938740E-12 0.000000000000E+00
     1.010000000000E+02 9.593750000000E+00 3.753727786401E-09-3.851049642304E-01
     4.619359970093E-07 1.509558642283E-04 3.995373845100E-06 5.440603086472E+03
     4.446000000000E+05 2.048909664154E-08 1.365930687764E+00-1.862645149231E-08
     9.521906381964E-01 2.501562500000E+02 1.241949277315E-01-5.804884653889E-09
     1.307197307158E-10 2.580000000000E+02 2.034000000000E+03 0.000000000000E+00
     3.120000000000E+00 0.000000000000E+00 2.328306436539E-10 0.000000000000E+00
     4.453000000000E+05 0.000000000000E+00 0.000000000000E+00 0.000000000000E+00
E08 2019 01 04 03 30 00 6.430320383515E-03-7.432277016051E-12 0.000000000000E+00
     1.010000000000E+02 6.187500000000E+00 3.569077237821E-09 1.413486955120E-02
     2.998858690262E-07 2.376087941229E-04 4.265457391739E-06 5.440601221085E+03
     4.446000000000E+05 1.117587089539E-08 1.357278466519E+00 6.519258022308E-08
     9.581323487325E-01 2.480625000000E+02 5.116179617303E-01-5.665950295287E-09
     1.367914121971E-10 2.580000000000E+02 2.034000000000E+03 0.000000000000E+00
     3.120000000000E+00 0.000000000000E+00-8.381903171539E-09 0.000000000000E+00
     4.453000000000E+05 0.000000000000E+00 0.000000000000E+00 0.000000000000E+00
E09 2019 01 04 03 30 00 6.568680750206E-03-1.131184035330E-11 0.000000000000E+00
     1.010000000000E+02 2.687500000000E+00 3.638722995990E-09 2.722266863879E+00
     1.434236764908E-07 2.583351451904E-04 3.987923264503E-06 5.440603101730E+03
     4.446000000000E+05 7.450580596924E-09 1.357277063581E+00 2.235174179077E-08
     9.581615588178E-01 2.543437500000E+02 1.584308695445E-01-5.764525829925E-09
     4.285892810353E-11 2.580000000000E+02 2.034000000000E+03 0.000000000000E+00
     3.120000000000E+00 0.000000000000E+00-3.259629011154E-09 0.000000000000E+00
     4.453000000000E+05 0.000000000000E+00 0.000000000000E+00 0.000000000000E+00
E14 2019 01 04 03 30 00 6.465078098699E-03-5.698552740796E-12 0.000000000000E+00
     1.010000000000E+02-3.285000000000E+02 3.979451474413E-09-2.745456065505E+00
    -1.268088817596E-05 1.663589592790E-01-3.673136234283E-06 5.289412738800E+03
     4.446000000000E+05 2.877786755562E-06-1.339287145954E+00 4.041939973831E-07
     8.825758615244E-01 3.264375000000E+02 1.451393760696E+00-6.331692311828E-09
     4.000166622996E-11 2.580000000000E+02 2.034000000000E+03 0.000000000000E+00
     3.120000000000E+00 5.600000000000E+01 3.306195139885E-08 0.000000000000E+00
     4.453000000000E+05 0.000000000000E+00 0.000000000000E+00 0.000000000000E+00
E18 2019 01 04 03 30 00 5.632520362269E-03-2.842170943040E-11 0.000000000000E+00
     1.010000000000E+02-6.206250000000E+01 5.329150551940E-09 3.659607267046E-01
    -5.096197128296E-06 1.664104209049E-01 4.753470420837E-06 5.289339965820E+03
     4.446000000000E+05-3.006309270859E-06-1.322159500039E+00-5.073845386505E-06
     8.817680293835E-01 2.739375000000E+02 1.436058967700E+00-7.984975463422E-09
     1.087545300627E-09 2.580000000000E+02 2.034000000000E+03 0.000000000000E+00
     3.120000000000E+00 5.600000000000E+01 1.420266926289E-08 0.000000000000E+00
     4.453000000000E+05 0.000000000000E+00 0.000000000000E+00 0.000000000000E+00
E19 2019 01 04 03 30 00-9.388197213411E-06 2.557953848736E-13 0.000000000000E+00
     1.010000000000E+02 3.437500000000E+00 3.606578799912E-09 2.331132232626E+00
     2.328306436539E-07 1.409373944625E-04 4.021450877190E-06 5.440603548050E+03
     4.446000000000E+05-9.313225746155E-09 1.362634699685E+00-1.862645149231E-09
     9.579183062624E-01 2.540937500000E+02 2.199706583591E+00-5.763811514456E-09
     6.607418082628E-11 2.580000000000E+02 2.034000000000E+03 0.000000000000E+00
     3.120000000000E+00 0.000000000000E+00-8.614733815193E-09 0.000000000000E+00
     4.453000000000E+05 0.000000000000E+00 0.000000000000E+00 0.000000000000E+00
E21 2019 01 04 03 30 00-5.126885371283E-04-1.875832822407E-12 0.000000000000E+00
     1.010000000000E+02 1.778437500000E+02 2.537605701463E-09-2.771301913197E+00
     8.368864655495E-06 5.021761171520E-05 9.328126907349E-06 5.440634431839E+03
     4.446000000000E+05-2.607703208923E-08-2.827616987083E+00-1.303851604462E-08
     9.899089892028E-01 1.549062500000E+02-3.469168424333E-01-5.258790478303E-09
     2.032227507576E-10 2.580000000000E+02 2.034000000000E+03 0.000000000000E+00
     3.120000000000E+00 0.000000000000E+00-2.561137080193E-09 0.000000000000E+00
     4.453000000000E+05 0.000000000000E+00 0.000000000000E+00 0.000000000000E+00
E25 2019 01 04 03 30 00 1.934291503858E-03-1.136868377216E-11 0.000000000000E+00
     1.010000000000E+02 2.079062500000E+02 2.491889511486E-09 1.398867409105E+00
     9.672716259956E-06 2.198634902015E-04 7.880851626396E-06 5.440637544632E+03
     4.446000000000E+05 6.332993507385E-08-2.827626191764E+00-5.587935447693E-09
     9.899148277089E-01 1.881875000000E+02-1.373958206417E+00-5.305935299217E-09
     2.353669468352E-10 2.580000000000E+02 2.034000000000E+03 0.000000000000E+00
     3.120000000000E+00 0.000000000000E+00-1.164153218269E-09 0.000000000000E+00
     4.453000000000E+05 0.000000000000E+00 0.000000000000E+00 0.000000000000E+00
E26 2019 01 04 03 30 00 5.059653427452E-03-4.322942004364E-11 0.000000000000E+00
     1.010000000000E+02-1.973750000000E+02 2.814045787731E-09-3.104317663314E+00
    -9.071081876755E-06 3.251100424677E-04 5.966052412987E-06 5.440612466812E+03
     4.446000000000E+05 4.097819328308E-08-7.356447554712E-01-3.352761268616E-08
     9.783794450882E-01 2.193125000000E+02-2.119491362077E+00-5.507372261304E-09
    -2.721541934574E-10 2.580000000000E+02 2.034000000000E+03 0.000000000000E+00
     3.120000000000E+00 0.000000000000E+00 1.164153218269E-09 0.000000000000E+00
     4.453000000000E+05 0.000000000000E+00 0.000000000000E+00 0.000000000000E+00
E27 2019 01 04 03 30 00 5.568066844717E-04-7.631228982063E-12 0.000000000000E+00
     1.010000000000E+02 1.947187500000E+02 2.495103931094E-09-1.404961056850E+00
     8.912757039070E-06 2.112645888701E-04 9.452924132347E-06 5.440637258530E+03
     4.446000000000E+05 1.862645149231E-09-2.827600715045E+00-4.097819328308E-08
     9.898814278262E-01 1.521562500000E+02-9.264369748243E-01-5.296649198128E-09
     2.210806374674E-10 2.580000000000E+02 2.034000000000E+03 0.000000000000E+00
     3.120000000000E+00 0.000000000000E+00-3.026798367500E-09 0.000000000000E+00
     4.453000000000E+05 0.000000000000E+00 0.000000000000E+00 0.000000000000E+00
E30 2019 01 04 03 30 00 5.216578894760E-03-3.048228336411E-11 0.000000000000E+00
     1.010000000000E+02 2.034062500000E+02 2.506890136322E-09-2.054884232988E+00
     9.289011359215E-06 2.949805930257E-04 9.043142199516E-06 5.440624910355E+03
     4.446000000000E+05 2.235174179077E-08-2.821591521561E+00-2.980232238770E-08
     9.878956160120E-01 1.553437500000E+02 4.887289640602E-01-5.327364763269E-09
     2.375098932404E-10 2.580000000000E+02 2.034000000000E+03 0.000000000000E+00
     3.120000000000E+00 0.000000000000E+00-3.026798367500E-09 0.000000000000E+00
     4.453000000000E+05 0.000000000000E+00 0.000000000000E+00 0.000000000000E+00
E33 2019 01 04 03 30 00 8.478640811518E-04 1.136868377216E-13 0.000000000000E+00
     1.010000000000E+02-1.808437500000E+02 2.588322099719E-09 1.782737108716E+00
    -8.471310138702E-06 3.519013989717E-04 6.264075636864E-06 5.440606859207E+03
     4.446000000000E+05-4.097819328308E-08-7.446255232476E-01-5.587935447693E-09
     9.852593703389E-01 2.147187500000E+02-1.515343334441E+00-5.414154092678E-09
    -3.207276453081E-10 2.580000000000E+02 2.034000000000E+03 0.000000000000E+00
     3.120000000000E+00 5.600000000000E+01-8.149072527885E-09 0.000000000000E+00
     4.453000000000E+05 0.000000000000E+00 0.000000000000E+00 0.000000000000E+00
E36 2019 01 04 03 30 00 7.637764792889E-04-4.547473508865E-12 0.000000000000E+00
     1.010000000000E+02-1.993750000000E+02 2.627966608215E-09-4.361862599714E-01
    -9.167939424515E-06 3.244988620281E-04 7.860362529755E-06 5.440609512329E+03
     4.446000000000E+05 5.587935447693E-08-7.445992214435E-01 0.000000000000E+00
     9.852669394771E-01 1.806250000000E+02-1.650850782390E+00-5.475942380694E-09
    -3.000124967247E-10 2.580000000000E+02 2.034000000000E+03 0.000000000000E+00
     3.120000000000E+00 5.600000000000E+01 1.164153218269E-09 0.000000000000E+00
     4.453000000000E+05 0.000000000000E+00 0.000000000000E+00 0.000000000000E+00
